satname,norad_id,inclination_deg,eccentricity,mean_motion_rev_per_day,perigee_km,apogee_km,l1,l2
STARLINK-1226,45229,53.0559,0.0001624,15.06399387,546.0887597847068,548.3381136065454,1 45229U 20012BD  25269.29179235  .00004671  00000+0  33226-3 0  9995,2 45229  53.0559  24.6274 0001624  71.8672 288.2493 15.06399387310517
STARLINK-1227,45230,53.056,0.0001432,15.06409048,546.1921213177666,548.1755332026933,1 45230U 20012BE  25269.22174271  .00007126  00000+0  49668-3 0  9990,2 45230  53.0560  24.9423 0001432  89.9593 270.1560 15.06409048310622
STARLINK-1238,45233,53.0414,0.0004751,16.04494347,258.83519346350295,265.1446420607599,1 45233U 20012BH  25269.62395131  .00741754  28188-3  10892-2 0  9996,2 45233  53.0414 346.4198 0004751   3.3520 138.9279 16.04494347310196
STARLINK-1246,45235,53.0541,0.0001178,15.06393299,546.4162871348253,548.0479040937516,1 45235U 20012BK  25269.17014317 -.00001020  00000+0 -49604-4 0  9993,2 45235  53.0541  65.1737 0001178  81.1683 278.9440 15.06393299310063
STARLINK-1247,45236,53.0386,0.0003847,16.00259782,271.13974828586015,276.2576706807358,1 45236U 20012BL  25268.66668981  .00546682  14269-3  10311-2 0  9992,2 45236  53.0386 331.4702 0003847   9.5707 308.9337 16.00259782  5971
STARLINK-1270,45237,53.0558,0.0001094,15.06424996,546.3773251063576,547.8925746089863,1 45237U 20012BM  25268.64305143  .00019115  00000+0  12978-2 0  9990,2 45237  53.0558  27.5406 0001094  89.5617 270.5498 15.06424996310525
STARLINK-1279,45360,53.053,0.0001352,15.06405439,546.2585833655039,548.1311931080818,1 45360U 20019A   25269.06602003  .00016744  00000+0  11402-2 0  9992,2 45360  53.0530 155.6430 0001352 113.9565 246.1566 15.06405439305321
STARLINK-1301,45361,53.0531,0.0001156,15.06423724,546.3382863613433,547.9394101374592,1 45361U 20019B   25269.12040030  .00017427  00000+0  11852-2 0  9994,2 45361  53.0531 165.3994 0001156  85.9336 274.1785 15.06423724305200
STARLINK-1306,45362,53.0498,0.0009896,15.57438472,388.37077314475846,401.7763114500731,1 45362U 20019C   25269.00003472  .00129687  00000+0  17112-2 0  9998,2 45362  53.0498 167.6586 0009896 102.3686  21.7255 15.57438472  5933
STARLINK-1262,45366,53.0542,0.0001428,15.06373358,546.3042616001576,548.2821644690011,1 45366U 20019G   25269.01903390 -.00005596  00000+0 -35733-3 0  9995,2 45366  53.0542 185.8507 0001428 104.6079 255.5069 15.06373358304911
STARLINK-1273,45367,53.0507,0.0001681,15.06412509,546.0090752722317,548.3373645681695,1 45367U 20019H   25269.17383920  .00018033  00000+0  12260-2 0  9991,2 45367  53.0507 185.1596 0001681 111.5954 248.5214 15.06412509304932
STARLINK-1276,45368,53.0541,0.0001359,15.06422458,546.2015827428677,548.0838737730091,1 45368U 20019J   25269.14434154  .00019476  00000+0  13220-2 0  9994,2 45368  53.0541 185.2965 0001359 128.8254 231.2856 15.06422458304933
STARLINK-1277,45369,53.0531,0.0001572,15.06451704,545.9644572740972,548.1417370406434,1 45369U 20019K   25269.00435433  .00050586  00000+0  33860-2 0  9990,2 45369  53.0531 186.5485 0001572  57.4258 302.6882 15.06451704304907
STARLINK-1281,45370,53.0538,0.000124,15.06407628,546.329438993328,548.046919637799,1 45370U 20019L   25269.06694566  .00018434  00000+0  12529-2 0  9997,2 45370  53.0538 185.6420 0001240  82.4511 277.6619 15.06407628304924
STARLINK-1300,45374,53.0529,0.0001084,15.06404694,546.4464653175,547.9478777658896,1 45374U 20019Q   25269.15540604  .00021054  00000+0  14279-2 0  9990,2 45374  53.0529 185.2415 0001084  75.8642 284.2468 15.06404694304932
STARLINK-1302,45375,53.0521,0.0001281,15.06416233,546.2746758009034,548.0489373551482,1 45375U 20019R   25269.17014699  .00024483  00000+0  16561-2 0  9998,2 45375  53.0521 185.1779 0001281  77.2959 282.8173 15.06416233304932
STARLINK-1304,45376,53.0524,0.0001335,15.0642279,546.2171860433391,548.0662354591095,1 45376U 20019S   25269.18858051  .00023605  00000+0  15973-2 0  9999,2 45376  53.0524 185.0951 0001335  76.5153 283.5984 15.06422790304938
STARLINK-1305,45377,53.0549,0.0001824,15.06378242,546.0150481367282,548.5414396176948,1 45377U 20019T   25269.21437687  .00004676  00000+0  33282-3 0  9993,2 45377  53.0549 184.9755 0001824  94.2441 265.8757 15.06378242304940
STARLINK-1319,45379,53.0566,0.0001448,15.06377025,546.2791732318146,548.284774566655,1 45379U 20019V   25269.20700763  .00001309  00000+0  10683-3 0  9992,2 45379  53.0566 185.0129 0001448  93.1375 266.9780 15.06377025304940
STARLINK-1258,45381,53.0392,0.0004859,16.07492985,250.50720576905405,256.95205375985915,1 45381U 20019X   25269.01642098  .00766537  31747-3  93460-3 0  9991,2 45381  53.0392 107.1550 0004859 229.9279 130.1328 16.07492985306008
STARLINK-1266,45383,53.0524,0.0001318,15.06432815,546.1982388305623,548.0237341998072,1 45383U 20019Z   25269.14250283  .00011516  00000+0  79006-3 0  9992,2 45383  53.0524 165.3000 0001318 104.3180 255.7955 15.06432815305202
STARLINK-1267,45384,53.0535,0.0001328,15.06406287,546.2726055261737,548.1119729853999,1 45384U 20019AA  25268.92881064  .00022777  00000+0  15428-2 0  9993,2 45384  53.0535 166.9177 0001328  77.1870 282.9268 15.06406287305169
STARLINK-1272,45386,53.054,0.0001219,15.06394187,546.3851718423521,548.0735761643327,1 45386U 20019AC  25269.00243950  .00000210  00000+0  32991-4 0  9995,2 45386  53.0540 165.9299 0001219  80.5494 279.5632 15.06394187305184
STARLINK-1274,45387,53.0339,0.0008158,15.24946177,485.3432598521931,496.5508574022506,1 45387U 20019AD  25269.11788166  .00017390  00000+0  70029-3 0  9991,2 45387  53.0339 155.8784 0008158  88.7496 271.4436 15.24946177305331
STARLINK-1280,45388,53.0522,0.0001125,15.06409725,546.4026540146424,547.9608507339253,1 45388U 20019AE  25268.99322164  .00015847  00000+0  10801-2 0  9995,2 45388  53.0522 185.9734 0001125  85.2148 274.8969 15.06409725304899
STARLINK-1283,45389,53.0538,0.0001434,15.06411112,546.1844113685365,548.1705915675575,1 45389U 20019AF  25269.10565387  .00007418  00000+0  51618-3 0  9993,2 45389  53.0538 165.4660 0001434  83.3745 276.7408 15.06411112305201
STARLINK-1284,45390,53.0521,9.93e-05,15.0639748,546.5315935073559,547.9069692648391,1 45390U 20019AG  25269.14619151  .00013221  00000+0  90486-3 0  9993,2 45390  53.0521 165.2833 0000993 113.0428 247.0666 15.06397480305201
STARLINK-1292,45394,53.0486,0.0005105,15.74733721,341.95665597516654,348.82137603750925,1 45394U 20019AL  25269.33336806  .00139152  00000+0  91634-3 0  9999,2 45394  53.0486 134.1880 0005105 167.0039 302.9535 15.74733721  5928
STARLINK-1297,45395,53.0536,0.0001046,15.06398252,546.4925232921578,547.9413073312408,1 45395U 20019AM  25268.98400914  .00002241  00000+0  16926-3 0  9991,2 45395  53.0536 166.0123 0001046  75.7477 284.3628 15.06398252304367
STARLINK-1307,45397,53.0528,0.0001525,15.06446652,546.0124861163731,548.1246738182635,1 45397U 20019AP  25269.10932760  .00028345  00000+0  19118-2 0  9995,2 45397  53.0528 165.4486 0001525 140.6947 219.4153 15.06446652305025
STARLINK-1312,45398,53.0471,0.0009826,15.7301312,343.6796762514514,356.9023830152855,1 45398U 20019AQ  25269.25003472  .00157033  00000+0  11084-2 0  9992,2 45398  53.0471 134.0976 0009826 108.0470  74.7852 15.73013120  5951
STARLINK-1255,45399,53.0522,0.0001199,15.06404759,546.3666247838173,548.0273198703808,1 45399U 20019AR  25269.01073734  .00019630  00000+0  13329-2 0  9999,2 45399  53.0522 155.8932 0001199  67.3615 292.7501 15.06404759305139
STARLINK-1259,45403,53.0459,0.0006934,15.85606905,309.9756297210206,319.2571401152245,1 45403U 20019AV  25269.25003472  .00277553  00000+0  10908-2 0  9993,2 45403  53.0459 115.6531 0006934 105.4361 331.7141 15.85606905  5985
STARLINK-1260,45404,53.052,0.0001422,15.06413846,546.184343736918,548.153900798091,1 45404U 20019AW  25269.11025621  .00008931  00000+0  61747-3 0  9999,2 45404  53.0520 155.4464 0001422  94.8765 265.2387 15.06413846305055
STARLINK-1263,45405,53.0529,0.0001267,15.06412869,546.2946799224665,548.0495532526111,1 45405U 20019AX  25269.09551624  .00019460  00000+0  13212-2 0  9996,2 45405  53.0529 155.5122 0001267  78.2397 281.8734 15.06412869305055
STARLINK-1265,45406,53.0539,0.0001457,15.06409239,546.1742227194172,548.1922610379006,1 45406U 20019AY  25269.10288855  .00014389  00000+0  98263-3 0  9997,2 45406  53.0539 155.4787 0001457 112.2506 247.8637 15.06409239305056
STARLINK-1278,45408,53.0537,0.0001397,15.06410657,546.2114293300565,548.1463625913884,1 45408U 20019BA  25269.06324729  .00001062  00000+0  90168-4 0  9996,2 45408  53.0537 185.6582 0001397  85.6634 274.4515 15.06410657304632
STARLINK-1296,45412,53.0533,0.000116,15.0640117,546.4046320423504,548.0113120758679,1 45412U 20019BE  25268.84118841  .00020073  00000+0  13626-2 0  9997,2 45412  53.0533 156.6535 0001160  70.4487 289.6627 15.06401170305010
STARLINK-1298,45413,53.0482,0.0010472,15.43375346,429.0200558714996,443.2919110961084,1 45413U 20019BF  25269.06697250  .00068177  00000+0  14971-2 0  9990,2 45413  53.0482 142.2368 0010472 115.0676 245.1417 15.43375346305336
STARLINK-1309,45414,53.053,0.0001391,15.06400759,546.2459160527396,548.1725473744009,1 45414U 20019BG  25268.92227547  .00004823  00000+0  34246-3 0  9999,2 45414  53.0530 156.2908 0001391  80.8890 279.2257 15.06400759305014
STARLINK-1316,45415,53.0547,0.0001418,15.06398663,546.2336406471732,548.1976706603164,1 45415U 20019BH  25268.94807075  .00000682  00000+0  64656-4 0  9990,2 45415  53.0547 156.1709 0001418  86.8603 273.2549 15.06398663305051
STARLINK-1318,45416,53.0529,6.9e-05,15.56013341,398.74093403079587,399.6762077195772,1 45416U 20019BJ  25268.89838257  .00059121  00000+0  83509-3 0  9990,2 45416  53.0529 137.1599 0000690 163.2207 196.8827 15.56013341305308
STARLINK-1286,45417,53.0526,0.0001356,15.06406518,546.2525067234501,548.1306558346923,1 45417U 20019BK  25269.25123423  .00007058  00000+0  49216-3 0  9993,2 45417  53.0526 184.8136 0001356  91.2102 268.9042 15.06406518304931
